     2.11           G: GLONASS NAV DATA                     RINEX VERSION / TYPE
teqc  2019Feb25                         20230219 22:59:37UTCPGM / RUN BY / DATE
Linux2.6.32-573.12.1.el6.x86_64|x86_64|gcc|Win64-MinGW64|=+ COMMENT
                                                            END OF HEADER
14 23  2 16  8 45  0.0 2.434104681015D-05 0.000000000000D+00 3.060000000000D+04
    1.994888818359D+04-9.689283370972D-01 0.000000000000D+00 0.000000000000D+00
   -1.314585351563D+04 7.605104446411D-01 9.313225746155D-10-7.000000000000D+00
    8.961813964844D+03 3.272562026978D+00-2.793967723846D-09 0.000000000000D+00
22 23  2 16  9 15  0.0 7.120426744223D-05 1.818989403546D-12 3.240000000000D+04
   -3.809951660156D+03-6.851100921631D-01-2.793967723846D-09 0.000000000000D+00
    1.691850585938D+04-2.467608451843D+00-9.313225746155D-10-3.000000000000D+00
    1.872651611328D+04 2.094735145569D+00-0.000000000000D+00 0.000000000000D+00
 3 23  2 16  9 15  0.0 7.261149585247D-05 0.000000000000D+00 3.240000000000D+04
    2.388000292969D+04 1.225349426270D+00 1.862645149231D-09 0.000000000000D+00
   -3.692583007813D+02 4.231548309326D-02 0.000000000000D+00 5.000000000000D+00
    8.924342285156D+03-3.300379753113D+00-3.725290298462D-09 0.000000000000D+00
21 23  2 16  9 15  0.0-3.737146034837D-04-2.728484105319D-12 3.240000000000D+04
   -1.044556396484D+04-1.106487274170D+00-3.725290298462D-09 0.000000000000D+00
    1.849942871094D+03-2.981696128845D+00-0.000000000000D+00 4.000000000000D+00
    2.319948974609D+04-2.621421813965D-01-0.000000000000D+00 0.000000000000D+00
13 23  2 16  9 15  0.0-3.208126872778D-05-0.000000000000D+00 3.240000000000D+04
    9.268899414063D+03-1.953568458557D+00-1.862645149231D-09 0.000000000000D+00
    6.065887207031D+03 2.468963623047D+00-0.000000000000D+00-2.000000000000D+00
    2.295512890625D+04 1.368217468262D-01-1.862645149231D-09 0.000000000000D+00
 4 23  2 16  9 15  0.0 1.760171726346D-04 1.818989403546D-12 3.240000000000D+04
    1.191085839844D+04 2.859717369080D+00-9.313225746155D-10 0.000000000000D+00
   -7.955965332031D+03 4.071664810181D-01 9.313225746155D-10 6.000000000000D+00
    2.113452832031D+04-1.461805343628D+00-2.793967723846D-09 0.000000000000D+00
12 23  2 16  9 15  0.0 2.504698932171D-05 9.094947017729D-13 3.240000000000D+04
   -3.338456542969D+03-1.464262008667D+00-1.862645149231D-09 0.000000000000D+00
    1.784706298828D+04 1.968796730042D+00-9.313225746155D-10-1.000000000000D+00
    1.794389892578D+04-2.230781555176D+00-0.000000000000D+00 0.000000000000D+00
14 23  2 16  9 15  0.0 2.434104681015D-05 0.000000000000D+00 3.240000000000D+04
    1.785639843750D+04-1.312835693359D+00 0.000000000000D+00 0.000000000000D+00
   -1.113513525391D+04 1.477419853210D+00 9.313225746155D-10-7.000000000000D+00
    1.443022802734D+04 2.764039993286D+00-3.725290298462D-09 0.000000000000D+00
 2 23  2 16  9 15  0.0-2.326257526875D-05-0.000000000000D+00 3.240000000000D+04
    2.263162158203D+04-1.133167266846D+00 4.656612873077D-09 0.000000000000D+00
    7.950352539063D+03-3.609857559204D-01-0.000000000000D+00-4.000000000000D+00
   -8.531049804688D+03-3.330257415771D+00-1.862645149231D-09 0.000000000000D+00
 5 23  2 16  9 15  0.0 1.078499481082D-04 9.094947017729D-13 3.258000000000D+04
   -6.521138671875D+03 2.935440063477D+00-3.725290298462D-09 0.000000000000D+00
   -1.145091601563D+04 5.730237960815D-01 9.313225746155D-10 1.000000000000D+00
    2.186030664063D+04 1.174163818359D+00-9.313225746155D-10 0.000000000000D+00
23 23  2 16  9 15  0.0-7.282104343176D-05-9.094947017729D-13 3.321000000000D+04
    7.601570800781D+03 1.341829299927D-01 0.000000000000D+00 0.000000000000D+00
    2.424991308594D+04-3.586616516113D-01-9.313225746155D-10 3.000000000000D+00
    2.131739746094D+03 3.595144271851D+00-9.313225746155D-10 0.000000000000D+00
22 23  2 16  9 45  0.0 7.120706140995D-05 1.818989403546D-12 3.420000000000D+04
   -5.521084472656D+03-1.217138290405D+00-3.725290298462D-09 0.000000000000D+00
    1.221556005859D+04-2.708096504211D+00-0.000000000000D+00-3.000000000000D+00
    2.172601464844D+04 1.216559410095D+00-0.000000000000D+00 0.000000000000D+00
21 23  2 16  9 45  0.0-3.737239167094D-04-2.728484105319D-12 3.420000000000D+04
   -1.277998730469D+04-1.458125114441D+00-4.656612873077D-09 0.000000000000D+00
   -3.227738769531D+03-2.616203308105D+00 0.000000000000D+00 4.000000000000D+00
    2.183713427734D+04-1.241820335388D+00 0.000000000000D+00 0.000000000000D+00
 5 23  2 16  9 45  0.0 1.078508794308D-04 9.094947017729D-13 3.420000000000D+04
   -9.922153320313D+02 3.157720565796D+00-2.793967723846D-09 0.000000000000D+00
   -1.079903369141D+04 1.379051208496D-01 9.313225746155D-10 1.000000000000D+00
    2.310318554688D+04 1.978101730347D-01-9.313225746155D-10 0.000000000000D+00
 3 23  2 16  9 45  0.0 7.261149585247D-05 0.000000000000D+00 3.420000000000D+04
    2.533165185547D+04 3.704147338867D-01 2.793967723846D-09 0.000000000000D+00
   -5.057133789063D+02-1.556320190430D-01-0.000000000000D+00 5.000000000000D+00
    2.714844726563D+03-3.554223060608D+00-3.725290298462D-09 0.000000000000D+00
 4 23  2 16  9 45  0.0 1.760208979249D-04 1.818989403546D-12 3.420000000000D+04
    1.670811279297D+04 2.424275398254D+00-0.000000000000D+00 0.000000000000D+00
   -7.635003906250D+03-3.318405151367D-02 0.000000000000D+00 6.000000000000D+00
    1.772225927734D+04-2.305158615112D+00-3.725290298462D-09 0.000000000000D+00
13 23  2 16  9 45  0.0-3.208313137293D-05-0.000000000000D+00 3.420000000000D+04
    6.107536621094D+03-1.533378601074D+00-1.862645149231D-09 0.000000000000D+00
    1.071120068359D+04 2.647882461548D+00-0.000000000000D+00-2.000000000000D+00
    2.230895556641D+04-8.500957489014D-01-1.862645149231D-09 0.000000000000D+00
23 23  2 16  9 45  0.0-7.282383739948D-05-9.094947017729D-13 3.420000000000D+04
    7.462778320313D+03-3.217487335205D-01-0.000000000000D+00 0.000000000000D+00
    2.287952880859D+04-1.136270523071D+00-9.313225746155D-10 3.000000000000D+00
    8.436839843750D+03 3.364991188049D+00-9.313225746155D-10 0.000000000000D+00
12 23  2 16  9 45  0.0 2.504792064428D-05 9.094947017729D-13 3.420000000000D+04
   -5.406916015625D+03-8.379554748535D-01-2.793967723846D-09 0.000000000000D+00
    2.111369384766D+04 1.614962577820D+00-9.313225746155D-10-1.000000000000D+00
    1.328812451172D+04-2.908810615540D+00 0.000000000000D+00 0.000000000000D+00
14 23  2 16  9 45  0.0 2.434104681015D-05 0.000000000000D+00 3.420000000000D+04
    1.538222070313D+04-1.392365455627D+00-0.000000000000D+00 0.000000000000D+00
   -7.847310058594D+03 2.160750389099D+00 9.313225746155D-10-7.000000000000D+00
    1.878393115234D+04 2.042026519775D+00-2.793967723846D-09 0.000000000000D+00
 5 23  2 16 10 15  0.0 1.078527420759D-04 9.094947017729D-13 3.600000000000D+04
    4.660136230469D+03 3.070716857910D+00-1.862645149231D-09 0.000000000000D+00
   -1.097015136719D+04-3.232173919678D-01 9.313225746155D-10 1.000000000000D+00
    2.256299121094D+04-7.942190170288D-01-2.793967723846D-09 0.000000000000D+00
 3 23  2 16 10 15  0.0 7.261242717505D-05 0.000000000000D+00 3.600000000000D+04
    2.518653613281D+04-5.291976928711D-01 3.725290298462D-09 0.000000000000D+00
   -7.839331054688D+02-1.124362945557D-01-9.313225746155D-10 5.000000000000D+00
   -3.705123046875D+03-3.532562255859D+00-2.793967723846D-09 0.000000000000D+00
23 23  2 16 10 15  0.0-7.282663136721D-05-9.094947017729D-13 3.600000000000D+04
    6.347818847656D+03-9.357223510742D-01-1.862645149231D-09 0.000000000000D+00
    2.028618603516D+04-1.703671455383D+00-0.000000000000D+00 3.000000000000D+00
    1.408906494141D+04 2.874448776245D+00-9.313225746155D-10 0.000000000000D+00
22 23  2 16 10 15  0.0 7.121078670025D-05 1.818989403546D-12 3.600000000000D+04
   -8.162014160156D+03-1.699941635132D+00-3.725290298462D-09 0.000000000000D+00
    7.349064453125D+03-2.650640487671D+00 0.000000000000D+00-3.000000000000D+00
    2.305005175781D+04 2.451534271240D-01-0.000000000000D+00 0.000000000000D+00
 4 23  2 16 10 15  0.0 1.760283485055D-04 1.818989403546D-12 3.600000000000D+04
    2.049124609375D+04 1.745085716248D+00 9.313225746155D-10 0.000000000000D+00
   -7.985195800781D+03-3.240900039673D-01 0.000000000000D+00 6.000000000000D+00
    1.294255566406D+04-2.971300125122D+00-3.725290298462D-09 0.000000000000D+00
13 23  2 16 10 15  0.0-3.208499401808D-05-0.000000000000D+00 3.600000000000D+04
    3.810703125000D+03-1.010378837585D+00-2.793967723846D-09 0.000000000000D+00
    1.542616357422D+04 2.541469573975D+00-0.000000000000D+00-2.000000000000D+00
    1.993452392578D+04-1.770956993103D+00-9.313225746155D-10 0.000000000000D+00
14 23  2 16 10 15  0.0 2.434197813272D-05 0.000000000000D+00 3.600000000000D+04
    1.299227392578D+04-1.225973129272D+00-9.313225746155D-10 0.000000000000D+00
   -3.442193359375D+03 2.701789855957D+00 0.000000000000D+00-7.000000000000D+00
    2.168661669922D+04 1.162244796753D+00-2.793967723846D-09 0.000000000000D+00
15 23  2 16 10 15  0.0 9.103957563639D-05-0.000000000000D+00 3.606000000000D+04
    1.377014794922D+04-6.879291534424D-01 9.313225746155D-10 0.000000000000D+00
   -1.887992187500D+04 1.226041793823D+00 9.313225746155D-10 0.000000000000D+00
    1.023885742188D+04 3.189516067505D+00-2.793967723846D-09 0.000000000000D+00
24 23  2 16 10 15  0.0 1.472234725952D-04 2.728484105319D-12 3.633000000000D+04
    1.531336865234D+04 2.957696914673D-01 9.313225746155D-10 0.000000000000D+00
    2.032100634766D+04 1.028108596802D-01-1.862645149231D-09 2.000000000000D+00
   -1.834828125000D+03 3.567906379700D+00-9.313225746155D-10 0.000000000000D+00
15 23  2 16 10 45  0.0 9.103957563639D-05-0.000000000000D+00 3.780000000000D+04
    1.248072314453D+04-7.033510208130D-01 0.000000000000D+00 0.000000000000D+00
   -1.595888085938D+04 2.003782272339D+00 9.313225746155D-10 0.000000000000D+00
    1.551025488281D+04 2.629619598389D+00-3.725290298462D-09 0.000000000000D+00
